{
  "type": "FeatureCollection",
  "features": [
    {
      "type": "Feature",
      "properties": {
        "norad_id": 33791,
        "name": "COSMOS 2251 DEB",
        "group": "cosmos-2251-debris",
        "lat": 39.50444589674299,
        "lon": 68.20436248893778,
        "alt_km": 763.5799345221631,
        "timestamp": "2025-12-03T10:52:57.848561+00:00",
        "meta_object_name": "COSMOS 2251 DEB",
        "meta_object_id": "1993-036AG",
        "meta_epoch": "2025-12-02T15:13:52.315392",
        "meta_mean_motion": 14.43041455,
        "meta_eccentricity": 0.0030581,
        "meta_inclination": 74.1759,
        "meta_ra_of_asc_node": 56.1887,
        "meta_arg_of_pericenter": 255.0035,
        "meta_mean_anomaly": 214.3212,
        "meta_ephemeris_type": 0,
        "meta_classification_type": "U",
        "meta_norad_cat_id": 33791,
        "meta_element_set_no": 999,
        "meta_rev_at_epoch": 87906,
        "meta_bstar": 0.0008701105,
        "meta_mean_motion_dot": 2.908e-05,
        "meta_mean_motion_ddot": 0,
        "tle_line1": "1 33791U 93036AG  25336.63463328  .00002908  00000+0  87011-3 0  9996",
        "tle_line2": "2 33791  74.1759  56.1887 0030581 255.0035 214.3212 14.43041455879066"
      },
      "geometry": {
        "type": "Point",
        "coordinates": [
          68.20436248893778,
          39.50444589674299
        ]
      }
    },
    {
      "type": "Feature",
      "properties": {
        "norad_id": 33792,
        "name": "COSMOS 2251 DEB",
        "group": "cosmos-2251-debris",
        "lat": 70.30576154442704,
        "lon": 126.38908013219304,
        "alt_km": 814.8827678574962,
        "timestamp": "2025-12-03T10:52:57.848572+00:00",
        "meta_object_name": "COSMOS 2251 DEB",
        "meta_object_id": "1993-036AH",
        "meta_epoch": "2025-12-03T03:35:11.374944",
        "meta_mean_motion": 13.45801572,
        "meta_eccentricity": 0.0426818,
        "meta_inclination": 73.9011,
        "meta_ra_of_asc_node": 0.6592,
        "meta_arg_of_pericenter": 67.1048,
        "meta_mean_anomaly": 359.2783,
        "meta_ephemeris_type": 0,
        "meta_classification_type": "U",
        "meta_norad_cat_id": 33792,
        "meta_element_set_no": 999,
        "meta_rev_at_epoch": 82313,
        "meta_bstar": 0.00077748,
        "meta_mean_motion_dot": 7.86e-06,
        "meta_mean_motion_ddot": 0,
        "tle_line1": "1 33792U 93036AH  25337.14943721  .00000786  00000+0  77748-3 0  9992",
        "tle_line2": "2 33792  73.9011   0.6592 0426818  67.1048 359.2783 13.45801572823134"
      },
      "geometry": {
        "type": "Point",
        "coordinates": [
          126.38908013219304,
          70.30576154442704
        ]
      }
    },
    {
      "type": "Feature",
      "properties": {
        "norad_id": 33793,
        "name": "COSMOS 2251 DEB",
        "group": "cosmos-2251-debris",
        "lat": 70.99601774046275,
        "lon": -136.67042316813337,
        "alt_km": 820.8641553957059,
        "timestamp": "2025-12-03T10:52:57.848583+00:00",
        "meta_object_name": "COSMOS 2251 DEB",
        "meta_object_id": "1993-036AJ",
        "meta_epoch": "2025-12-02T23:18:54.613152",
        "meta_mean_motion": 14.27670646,
        "meta_eccentricity": 0.0078169,
        "meta_inclination": 73.9798,
        "meta_ra_of_asc_node": 167.6701,
        "meta_arg_of_pericenter": 319.683,
        "meta_mean_anomaly": 163.0027,
        "meta_ephemeris_type": 0,
        "meta_classification_type": "U",
        "meta_norad_cat_id": 33793,
        "meta_element_set_no": 999,
        "meta_rev_at_epoch": 87067,
        "meta_bstar": 0.00077936,
        "meta_mean_motion_dot": 1.958e-05,
        "meta_mean_motion_ddot": 0,
        "tle_line1": "1 33793U 93036AJ  25336.97146543  .00001958  00000+0  77936-3 0  9991",
        "tle_line2": "2 33793  73.9798 167.6701 0078169 319.6830 163.0027 14.27670646870679"
      },
      "geometry": {
        "type": "Point",
        "coordinates": [
          -136.67042316813337,
          70.99601774046275
        ]
      }
    },
    {
      "type": "Feature",
      "properties": {
        "norad_id": 33795,
        "name": "COSMOS 2251 DEB",
        "group": "cosmos-2251-debris",
        "lat": -42.057999166541975,
        "lon": 80.79689779599434,
        "alt_km": 574.0355465600933,
        "timestamp": "2025-12-03T10:52:57.848594+00:00",
        "meta_object_name": "COSMOS 2251 DEB",
        "meta_object_id": "1993-036AL",
        "meta_epoch": "2025-12-03T02:17:43.645920",
        "meta_mean_motion": 15.04879728,
        "meta_eccentricity": 0.0033255,
        "meta_inclination": 74.0315,
        "meta_ra_of_asc_node": 96.5019,
        "meta_arg_of_pericenter": 182.817,
        "meta_mean_anomaly": 355.2198,
        "meta_ephemeris_type": 0,
        "meta_classification_type": "U",
        "meta_norad_cat_id": 33795,
        "meta_element_set_no": 999,
        "meta_rev_at_epoch": 89876,
        "meta_bstar": 0.0022576,
        "meta_mean_motion_dot": 0.00032442,
        "meta_mean_motion_ddot": 0,
        "tle_line1": "1 33795U 93036AL  25337.09564405  .00032442  00000+0  22576-2 0  9999",
        "tle_line2": "2 33795  74.0315  96.5019 0033255 182.8170 355.2198 15.04879728898766"
      },
      "geometry": {
        "type": "Point",
        "coordinates": [
          80.79689779599434,
          -42.057999166541975
        ]
      }
    },
    {
      "type": "Feature",
      "properties": {
        "norad_id": 33797,
        "name": "COSMOS 2251 DEB",
        "group": "cosmos-2251-debris",
        "lat": -71.59568634740276,
        "lon": -6.662198572209507,
        "alt_km": 738.388966653386,
        "timestamp": "2025-12-03T10:52:57.848605+00:00",
        "meta_object_name": "COSMOS 2251 DEB",
        "meta_object_id": "1993-036AN",
        "meta_epoch": "2025-12-03T04:48:16.772832",
        "meta_mean_motion": 14.57779784,
        "meta_eccentricity": 0.0061235,
        "meta_inclination": 74.0486,
        "meta_ra_of_asc_node": 53.0883,
        "meta_arg_of_pericenter": 143.7689,
        "meta_mean_anomaly": 246.5183,
        "meta_ephemeris_type": 0,
        "meta_classification_type": "U",
        "meta_norad_cat_id": 33797,
        "meta_element_set_no": 999,
        "meta_rev_at_epoch": 88846,
        "meta_bstar": 0.00069901,
        "meta_mean_motion_dot": 3.251e-05,
        "meta_mean_motion_ddot": 0,
        "tle_line1": "1 33797U 93036AN  25337.20019413  .00003251  00000+0  69901-3 0  9998",
        "tle_line2": "2 33797  74.0486  53.0883 0061235 143.7689 246.5183 14.57779784888464"
      },
      "geometry": {
        "type": "Point",
        "coordinates": [
          -6.662198572209507,
          -71.59568634740276
        ]
      }
    },
    {
      "type": "Feature",
      "properties": {
        "norad_id": 33798,
        "name": "COSMOS 2251 DEB",
        "group": "cosmos-2251-debris",
        "lat": -55.359420939254726,
        "lon": -2.3069231828419094,
        "alt_km": 697.7502818782887,
        "timestamp": "2025-12-03T10:52:57.848616+00:00",
        "meta_object_name": "COSMOS 2251 DEB",
        "meta_object_id": "1993-036AP",
        "meta_epoch": "2025-12-02T22:40:47.758080",
        "meta_mean_motion": 14.44595033,
        "meta_eccentricity": 0.0092484,
        "meta_inclination": 74.0276,
        "meta_ra_of_asc_node": 154.149,
        "meta_arg_of_pericenter": 277.6324,
        "meta_mean_anomaly": 198.6522,
        "meta_ephemeris_type": 0,
        "meta_classification_type": "U",
        "meta_norad_cat_id": 33798,
        "meta_element_set_no": 999,
        "meta_rev_at_epoch": 88452,
        "meta_bstar": 0.00020788,
        "meta_mean_motion_dot": 7.28e-06,
        "meta_mean_motion_ddot": 0,
        "tle_line1": "1 33798U 93036AP  25336.94499720  .00000728  00000+0  20788-3 0  9998",
        "tle_line2": "2 33798  74.0276 154.1490 0092484 277.6324 198.6522 14.44595033884528"
      },
      "geometry": {
        "type": "Point",
        "coordinates": [
          -2.3069231828419094,
          -55.359420939254726
        ]
      }
    },
    {
      "type": "Feature",
      "properties": {
        "norad_id": 33799,
        "name": "COSMOS 2251 DEB",
        "group": "cosmos-2251-debris",
        "lat": 36.868345678408076,
        "lon": 112.46885864295828,
        "alt_km": 640.5910232888245,
        "timestamp": "2025-12-03T10:52:57.848633+00:00",
        "meta_object_name": "COSMOS 2251 DEB",
        "meta_object_id": "1993-036AQ",
        "meta_epoch": "2025-12-02T19:01:32.837088",
        "meta_mean_motion": 14.79295167,
        "meta_eccentricity": 0.0024613,
        "meta_inclination": 74.0313,
        "meta_ra_of_asc_node": 101.3679,
        "meta_arg_of_pericenter": 174.6604,
        "meta_mean_anomaly": 307.1207,
        "meta_ephemeris_type": 0,
        "meta_classification_type": "U",
        "meta_norad_cat_id": 33799,
        "meta_element_set_no": 999,
        "meta_rev_at_epoch": 88664,
        "meta_bstar": 0.0023522,
        "meta_mean_motion_dot": 0.00017603,
        "meta_mean_motion_ddot": 0,
        "tle_line1": "1 33799U 93036AQ  25336.79274117  .00017603  00000+0  23522-2 0  9991",
        "tle_line2": "2 33799  74.0313 101.3679 0024613 174.6604 307.1207 14.79295167886645"
      },
      "geometry": {
        "type": "Point",
        "coordinates": [
          112.46885864295828,
          36.868345678408076
        ]
      }
    }
  ]
}